OBJECT_NAME,OBJECT_ID,EPOCH,MEAN_MOTION,ECCENTRICITY,INCLINATION,RA_OF_ASC_NODE,ARG_OF_PERICENTER,MEAN_ANOMALY,EPHEMERIS_TYPE,CLASSIFICATION_TYPE,NORAD_CAT_ID,ELEMENT_SET_NO,REV_AT_EPOCH,BSTAR,MEAN_MOTION_DOT,MEAN_MOTION_DDOT
ONEWEB-0068,2020-020Y,2026-06-19T14:16:33.720672,13.11413879,.00016961,87.8894,20.5846,80.4669,279.6651,0,U,45446,999,30291,-.59607541E-3,-.199E-5,0
ONEWEB-0046,2020-020Z,2026-06-19T15:54:25.313472,13.11414263,.00019398,87.8886,20.5767,78.5036,281.6310,0,U,45447,999,30293,.67806848E-3,.253E-5,0
ONEWEB-0063,2020-020AA,2026-06-19T14:46:14.137824,13.11416120,.00021194,87.8896,20.5852,85.2122,274.9248,0,U,45448,999,30301,-.14849966E-2,-.514E-5,0
ONEWEB-0019,2020-020AB,2026-06-19T15:42:01.742976,13.11415267,.00017329,87.8888,20.5639,90.8449,269.2877,0,U,45449,999,30286,.12013064E-2,.438E-5,0
ONEWEB-0094,2020-020AC,2026-06-19T22:28:45.517152,13.17648515,.00016203,87.9141,5.3021,87.9130,272.2188,0,U,45450,999,30667,.46866663E-4,.31E-6,0
ONEWEB-0087,2020-020AD,2026-06-19T15:00:29.849472,13.11419739,.00016181,87.8904,20.5578,77.3817,282.7492,0,U,45451,999,30290,-.55605629E-3,-.184E-5,0
ONEWEB-0082,2020-020AE,2026-06-19T14:55:37.320672,13.11420024,.00017765,87.8895,20.5748,70.2546,289.8774,0,U,45452,999,30299,-.97396777E-3,-.333E-5,0
ONEWEB-0050,2020-020AF,2026-06-19T16:39:11.339136,14.90389279,.00027443,88.9297,232.8705,20.1428,339.9909,0,U,45453,999,34075,.16079968E-3,.1586E-4,0
ONEWEB-0034,2020-020AG,2026-06-19T15:49:44.777856,13.11414561,.00018085,87.8892,20.5767,85.0948,275.0386,0,U,45454,999,30291,.89127968E-3,.329E-5,0
ONEWEB-0060,2020-020AH,2026-06-19T14:44:49.080480,13.11415972,.00011535,87.8888,20.5835,55.8067,304.3170,0,U,45455,999,30286,-.14602384E-2,-.505E-5,0
ONEWEB-0086,2020-020AJ,2026-06-19T14:14:07.402272,13.11413854,.00010229,87.8892,20.5831,90.3694,269.7551,0,U,45456,999,30292,-.2588557E-3,-.79E-6,0
ONEWEB-0088,2020-020AK,2026-06-19T15:32:26.867616,13.11418658,.00021425,87.8902,20.5455,78.6999,281.4370,0,U,45457,999,30286,.15573603E-2,.565E-5,0
ONEWEB-0102,2020-100A,2026-06-19T11:56:08.110176,13.12441348,.00016274,87.8939,350.2156,99.3401,260.7911,0,U,47258,999,26503,.10792021E-2,.401E-5,0
ONEWEB-0109,2020-100B,2026-06-19T21:17:14.335872,13.12441265,.00018412,87.8950,350.1215,96.4797,263.6541,0,U,47259,999,26491,.32808303E-3,.131E-5,0
ONEWEB-0110,2020-100C,2026-06-19T21:56:15.275616,13.12442861,.00015808,87.8950,350.1003,91.6660,268.4650,0,U,47260,999,26508,-.148647E-2,-.522E-5,0
ONEWEB-0111,2020-100D,2026-06-19T22:40:11.283456,13.12442621,.00017647,87.8952,350.1127,90.7409,269.3922,0,U,47261,999,26492,.11928457E-2,.442E-5,0
ONEWEB-0114,2020-100E,2026-06-19T12:25:25.313376,13.12433926,.00018847,87.8951,350.1952,97.1844,262.9499,0,U,47262,999,26482,.24370919E-2,.889E-5,0
ONEWEB-0117,2020-100F,2026-06-19T12:13:12.412416,13.12442368,.0001778,87.8947,350.1879,91.9484,268.1849,0,U,47263,999,26483,-.51218399E-4,-.6E-7,0
ONEWEB-0118,2020-100G,2026-06-19T22:10:54.181344,13.12444722,.00021054,87.8948,350.1082,91.3114,268.8256,0,U,47264,999,26508,-.71285581E-3,-.244E-5,0
ONEWEB-0119,2020-100H,2026-06-19T22:47:30.614496,13.12443519,.00018086,87.8937,350.1197,90.6985,269.4350,0,U,47265,999,26506,.1177796E-2,.436E-5,0
ONEWEB-0120,2020-100J,2026-06-19T21:32:04.027776,13.12443525,.00018791,87.8940,350.1309,97.5799,262.5543,0,U,47266,999,26508,-.41619102E-3,-.137E-5,0
ONEWEB-0121,2020-100K,2026-06-19T12:05:53.204928,13.12442831,.00016806,87.8951,350.1958,82.4075,277.7244,0,U,47267,999,26494,.18739761E-3,.8E-6,0
ONEWEB-0122,2020-100L,2026-06-19T11:57:22.083264,13.12442610,.00017352,87.8950,350.2015,96.5415,263.5911,0,U,47268,999,26485,.94899602E-3,.354E-5,0
ONEWEB-0123,2020-100M,2026-06-19T11:51:15.153696,13.12443744,.00019029,87.8937,350.2093,90.7695,269.3651,0,U,47269,999,26499,.12224682E-2,.453E-5,0
ONEWEB-0124,2020-100N,2026-06-19T22:35:18.086784,13.12445045,.00017451,87.8937,350.1233,87.8529,272.2799,0,U,47270,999,26493,.10329955E-2,.384E-5,0
ONEWEB-0125,2020-100P,2026-06-19T22:03:34.234272,13.12442574,.00019348,87.8952,350.1112,82.9847,277.1502,0,U,47271,999,26499,-.93361264E-3,-.323E-5,0
ONEWEB-0126,2020-100Q,2026-06-19T13:24:10.486080,13.12443369,.00018802,87.8942,350.1985,93.7278,266.4066,0,U,47272,999,26501,.93889385E-3,.351E-5,0
ONEWEB-0127,2020-100R,2026-06-19T01:36:27.682848,13.12441615,.00018303,87.8935,350.2950,95.1588,264.9749,0,U,47273,999,26497,-.16455831E-2,-.579E-5,0
ONEWEB-0128,2020-100S,2026-06-19T05:47:44.818944,13.12444368,.00014979,87.8935,350.2743,91.0053,269.1247,0,U,47274,999,26501,.22437717E-3,.93E-6,0
ONEWEB-0129,2020-100T,2026-06-19T21:46:30.265536,13.12443213,.00025251,87.8950,350.1158,115.1222,245.0168,0,U,47275,999,26503,-.11319425E-2,-.394E-5,0
