ONEWEB-0068             
1 45446U 20020Y   26170.59483473 -.00000199  00000+0 -59608-3 0  9997
2 45446  87.8894  20.5846 0001696  80.4669 279.6651 13.11413879302918
ONEWEB-0046             
1 45447U 20020Z   26170.66279298  .00000253  00000+0  67807-3 0  9993
2 45447  87.8886  20.5767 0001939  78.5036 281.6310 13.11414263302933
ONEWEB-0063             
1 45448U 20020AA  26170.61544141 -.00000514  00000+0 -14850-2 0  9992
2 45448  87.8896  20.5852 0002119  85.2122 274.9248 13.11416120303011
ONEWEB-0019             
1 45449U 20020AB  26170.65418684  .00000438  00000+0  12013-2 0  9991
2 45449  87.8888  20.5639 0001732  90.8449 269.2877 13.11415267302868
ONEWEB-0094             
1 45450U 20020AC  26170.93663793  .00000031  00000+0  46867-4 0  9992
2 45450  87.9141   5.3021 0001620  87.9130 272.2188 13.17648515306671
ONEWEB-0087             
1 45451U 20020AD  26170.62534548 -.00000184  00000+0 -55606-3 0  9995
2 45451  87.8904  20.5578 0001618  77.3817 282.7492 13.11419739302900
ONEWEB-0082             
1 45452U 20020AE  26170.62195973 -.00000333  00000+0 -97397-3 0  9990
2 45452  87.8895  20.5748 0001776  70.2546 289.8774 13.11420024302994
ONEWEB-0050             
1 45453U 20020AF  26170.69388124  .00001586  00000+0  16080-3 0  9999
2 45453  88.9297 232.8705 0002744  20.1428 339.9909 14.90389279340750
ONEWEB-0034             
1 45454U 20020AG  26170.65954604  .00000329  00000+0  89128-3 0  9995
2 45454  87.8892  20.5767 0001808  85.0948 275.0386 13.11414561302917
ONEWEB-0060             
1 45455U 20020AH  26170.61445695 -.00000505  00000+0 -14602-2 0  9999
2 45455  87.8888  20.5835 0001153  55.8067 304.3170 13.11415972302867
ONEWEB-0086             
1 45456U 20020AJ  26170.59314123 -.00000079  00000+0 -25886-3 0  9991
2 45456  87.8892  20.5831 0001022  90.3694 269.7551 13.11413854302925
ONEWEB-0088             
1 45457U 20020AK  26170.64753319  .00000565  00000+0  15574-2 0  9992
2 45457  87.8902  20.5455 0002142  78.6999 281.4370 13.11418658302861
ONEWEB-0102             
1 47258U 20100A   26170.49731609  .00000401  00000+0  10792-2 0  9999
2 47258  87.8939 350.2156 0001627  99.3401 260.7911 13.12441348265039
ONEWEB-0109             
1 47259U 20100B   26170.88697148  .00000131  00000+0  32808-3 0  9995
2 47259  87.8950 350.1215 0001841  96.4797 263.6541 13.12441265264917
ONEWEB-0110             
1 47260U 20100C   26170.91406569 -.00000522  00000+0 -14865-2 0  9994
2 47260  87.8950 350.1003 0001580  91.6660 268.4650 13.12442861265086
ONEWEB-0111             
1 47261U 20100D   26170.94457504  .00000442  00000+0  11928-2 0  9999
2 47261  87.8952 350.1127 0001764  90.7409 269.3922 13.12442621264929
ONEWEB-0114             
1 47262U 20100E   26170.51765409  .00000889  00000+0  24371-2 0  9990
2 47262  87.8951 350.1952 0001884  97.1844 262.9499 13.12433926264827
ONEWEB-0117             
1 47263U 20100F   26170.50917144 -.00000006  00000+0 -51218-4 0  9990
2 47263  87.8947 350.1879 0001778  91.9484 268.1849 13.12442368264833
ONEWEB-0118             
1 47264U 20100G   26170.92423821 -.00000244  00000+0 -71286-3 0  9991
2 47264  87.8948 350.1082 0002105  91.3114 268.8256 13.12444722265083
ONEWEB-0119             
1 47265U 20100H   26170.94965989  .00000436  00000+0  11778-2 0  9990
2 47265  87.8937 350.1197 0001808  90.6985 269.4350 13.12443519265069
ONEWEB-0120             
1 47266U 20100J   26170.89726884 -.00000137  00000+0 -41619-3 0  9992
2 47266  87.8940 350.1309 0001879  97.5799 262.5543 13.12443525265083
ONEWEB-0121             
1 47267U 20100K   26170.50408802  .00000080  00000+0  18740-3 0  9992
2 47267  87.8951 350.1958 0001680  82.4075 277.7244 13.12442831264945
ONEWEB-0122             
1 47268U 20100L   26170.49817226  .00000354  00000+0  94900-3 0  9991
2 47268  87.8950 350.2015 0001735  96.5415 263.5911 13.12442610264854
ONEWEB-0123             
1 47269U 20100M   26170.49392539  .00000453  00000+0  12225-2 0  9996
2 47269  87.8937 350.2093 0001902  90.7695 269.3651 13.12443744264997
ONEWEB-0124             
1 47270U 20100N   26170.94118156  .00000384  00000+0  10330-2 0  9997
2 47270  87.8937 350.1233 0001745  87.8529 272.2799 13.12445045264938
ONEWEB-0125             
1 47271U 20100P   26170.91914623 -.00000323  00000+0 -93361-3 0  9999
2 47271  87.8952 350.1112 0001934  82.9847 277.1502 13.12442574264997
ONEWEB-0126             
1 47272U 20100Q   26170.55845470  .00000351  00000+0  93889-3 0  9997
2 47272  87.8942 350.1985 0001880  93.7278 266.4066 13.12443369265016
ONEWEB-0127             
1 47273U 20100R   26170.06698707 -.00000579  00000+0 -16456-2 0  9991
2 47273  87.8935 350.2950 0001830  95.1588 264.9749 13.12441615264974
ONEWEB-0128             
1 47274U 20100S   26170.24149096  .00000093  00000+0  22438-3 0  9991
2 47274  87.8935 350.2743 0001497  91.0053 269.1247 13.12444368265010
ONEWEB-0129             
1 47275U 20100T   26170.90729474 -.00000394  00000+0 -11319-2 0  9990
2 47275  87.8950 350.1158 0002525 115.1222 245.0168 13.12443213265031
